ONEWEB-0512             
1 54130U 22138T   26027.59236337 -.00000002  00000+0 -36933-4 0  9995
2 54130  87.9250 332.9565 0001564  70.4746 289.6555 13.19725965158263
ONEWEB-0513             
1 54131U 22138U   26027.80688781  .00000005  00000+0 -20013-4 0  9998
2 54131  87.9257 332.8727 0001649  48.5827 311.5448 13.20258777158192
ONEWEB-0514             
1 54132U 22138V   26027.38069676  .00000048  00000+0  86720-4 0  9991
2 54132  87.9256 332.9857 0001922  79.9117 280.2233 13.19728013158255
ONEWEB-0515             
1 54133U 22138W   26027.28697354  .00000011  00000+0 -55033-5 0  9996
2 54133  87.9218 302.5411 0002124 108.7654 251.3710 13.20774450160705
ONEWEB-0516             
1 54134U 22138X   26027.35543491  .00000116  00000+0  25742-3 0  9994
2 54134  87.9240 333.0067 0001639  82.8550 277.2769 13.19726685158257
ONEWEB-0517             
1 54135U 22138Y   26027.78978965  .00000056  00000+0  10700-3 0  9991
2 54135  87.9249 332.9066 0001989  72.9439 287.1912 13.19727982158316
ONEWEB-0518             
1 54136U 22138Z   26027.80873822 -.00000234  00000+0 -61671-3 0  9994
2 54136  87.9240 332.9184 0001640  76.6927 283.4389 13.19725913158315
ONEWEB-0519             
1 54137U 22138AA  26027.37913170  .00000020  00000+0  18472-4 0  9991
2 54137  87.9248 332.9791 0001898  74.8156 285.3187 13.19726413158264
